[{"OBJECT_NAME":"ONEWEB-0018","OBJECT_ID":"2020-020L","EPOCH":"2025-11-03T18:15:43.571808","MEAN_MOTION":13.11424033,"ECCENTRICITY":0.0001738,"INCLINATION":87.8856,"RA_OF_ASC_NODE":65.9517,"ARG_OF_PERICENTER":106.0622,"MEAN_ANOMALY":254.0698,"EPHEMERIS_TYPE":0,"CLASSIFICATION_TYPE":"U","NORAD_CAT_ID":45434,"ELEMENT_SET_NO":999,"REV_AT_EPOCH":27308,"BSTAR":-0.0050532,"MEAN_MOTION_DOT":-1.778e-5,"MEAN_MOTION_DDOT":0},{"OBJECT_NAME":"ONEWEB-0083","OBJECT_ID":"2020-020M","EPOCH":"2025-11-03T18:02:19.867776","MEAN_MOTION":13.11419199,"ECCENTRICITY":0.0001682,"INCLINATION":87.8858,"RA_OF_ASC_NODE":65.943,"ARG_OF_PERICENTER":101.1225,"MEAN_ANOMALY":259.0092,"EPHEMERIS_TYPE":0,"CLASSIFICATION_TYPE":"U","NORAD_CAT_ID":45435,"ELEMENT_SET_NO":999,"REV_AT_EPOCH":27312,"BSTAR":-0.0011404,"MEAN_MOTION_DOT":-3.91e-6,"MEAN_MOTION_DDOT":0},{"OBJECT_NAME":"ONEWEB-0095","OBJECT_ID":"2020-020N","EPOCH":"2025-11-03T14:09:21.184128","MEAN_MOTION":13.11415315,"ECCENTRICITY":0.0001502,"INCLINATION":87.8849,"RA_OF_ASC_NODE":65.9895,"ARG_OF_PERICENTER":72.4343,"MEAN_ANOMALY":287.6949,"EPHEMERIS_TYPE":0,"CLASSIFICATION_TYPE":"U","NORAD_CAT_ID":45436,"ELEMENT_SET_NO":999,"REV_AT_EPOCH":27310,"BSTAR":-0.0013311,"MEAN_MOTION_DOT":-4.59e-6,"MEAN_MOTION_DDOT":0},{"OBJECT_NAME":"ONEWEB-0092","OBJECT_ID":"2020-020P","EPOCH":"2025-11-03T13:28:53.330304","MEAN_MOTION":13.11417179,"ECCENTRICITY":0.000148,"INCLINATION":87.8858,"RA_OF_ASC_NODE":65.9913,"ARG_OF_PERICENTER":92.8466,"MEAN_ANOMALY":267.2831,"EPHEMERIS_TYPE":0,"CLASSIFICATION_TYPE":"U","NORAD_CAT_ID":45437,"ELEMENT_SET_NO":999,"REV_AT_EPOCH":27321,"BSTAR":0.001294,"MEAN_MOTION_DOT":4.71e-6,"MEAN_MOTION_DDOT":0},{"OBJECT_NAME":"ONEWEB-0085","OBJECT_ID":"2020-020Q","EPOCH":"2025-11-03T18:01:06.102912","MEAN_MOTION":13.114182,"ECCENTRICITY":0.0001545,"INCLINATION":87.885,"RA_OF_ASC_NODE":65.9646,"ARG_OF_PERICENTER":99.8547,"MEAN_ANOMALY":260.2755,"EPHEMERIS_TYPE":0,"CLASSIFICATION_TYPE":"U","NORAD_CAT_ID":45438,"ELEMENT_SET_NO":999,"REV_AT_EPOCH":27312,"BSTAR":-0.0022061,"MEAN_MOTION_DOT":-7.69e-6,"MEAN_MOTION_DDOT":0},{"OBJECT_NAME":"ONEWEB-0096","OBJECT_ID":"2020-020R","EPOCH":"2025-11-03T18:03:32.010912","MEAN_MOTION":13.11417305,"ECCENTRICITY":0.0001594,"INCLINATION":87.8863,"RA_OF_ASC_NODE":65.9403,"ARG_OF_PERICENTER":107.19,"MEAN_ANOMALY":252.9402,"EPHEMERIS_TYPE":0,"CLASSIFICATION_TYPE":"U","NORAD_CAT_ID":45439,"ELEMENT_SET_NO":999,"REV_AT_EPOCH":27311,"BSTAR":-0.0018367,"MEAN_MOTION_DOT":-6.38e-6,"MEAN_MOTION_DDOT":0},{"OBJECT_NAME":"ONEWEB-0037","OBJECT_ID":"2020-020S","EPOCH":"2025-11-03T19:25:20.803584","MEAN_MOTION":13.11415686,"ECCENTRICITY":0.0001503,"INCLINATION":87.8866,"RA_OF_ASC_NODE":65.8965,"ARG_OF_PERICENTER":97.3261,"MEAN_ANOMALY":262.8038,"EPHEMERIS_TYPE":0,"CLASSIFICATION_TYPE":"U","NORAD_CAT_ID":45440,"ELEMENT_SET_NO":999,"REV_AT_EPOCH":27315,"BSTAR":-0.00063965,"MEAN_MOTION_DOT":-2.14e-6,"MEAN_MOTION_DDOT":0},{"OBJECT_NAME":"ONEWEB-0042","OBJECT_ID":"2020-020T","EPOCH":"2025-11-03T14:08:57.401664","MEAN_MOTION":13.11415592,"ECCENTRICITY":0.0001466,"INCLINATION":87.8855,"RA_OF_ASC_NODE":65.9739,"ARG_OF_PERICENTER":100.3206,"MEAN_ANOMALY":259.8087,"EPHEMERIS_TYPE":0,"CLASSIFICATION_TYPE":"U","NORAD_CAT_ID":45441,"ELEMENT_SET_NO":999,"REV_AT_EPOCH":27309,"BSTAR":-0.0012919,"MEAN_MOTION_DOT":-4.45e-6,"MEAN_MOTION_DDOT":0},{"OBJECT_NAME":"ONEWEB-0098","OBJECT_ID":"2020-020U","EPOCH":"2025-11-03T14:03:03.421728","MEAN_MOTION":13.11415691,"ECCENTRICITY":0.0001696,"INCLINATION":87.8853,"RA_OF_ASC_NODE":65.9865,"ARG_OF_PERICENTER":100.398,"MEAN_ANOMALY":259.7339,"EPHEMERIS_TYPE":0,"CLASSIFICATION_TYPE":"U","NORAD_CAT_ID":45442,"ELEMENT_SET_NO":999,"REV_AT_EPOCH":27307,"BSTAR":-0.0015666,"MEAN_MOTION_DOT":-5.42e-6,"MEAN_MOTION_DDOT":0},{"OBJECT_NAME":"ONEWEB-0055","OBJECT_ID":"2020-020V","EPOCH":"2025-11-03T13:38:38.883840","MEAN_MOTION":13.11416364,"ECCENTRICITY":0.0001676,"INCLINATION":87.8857,"RA_OF_ASC_NODE":65.9908,"ARG_OF_PERICENTER":100.7611,"MEAN_ANOMALY":259.3705,"EPHEMERIS_TYPE":0,"CLASSIFICATION_TYPE":"U","NORAD_CAT_ID":45443,"ELEMENT_SET_NO":999,"REV_AT_EPOCH":27304,"BSTAR":0.00057104,"MEAN_MOTION_DOT":2.15e-6,"MEAN_MOTION_DDOT":0},{"OBJECT_NAME":"ONEWEB-0093","OBJECT_ID":"2020-020W","EPOCH":"2025-11-03T14:53:20.278176","MEAN_MOTION":13.11419333,"ECCENTRICITY":0.0001247,"INCLINATION":87.8856,"RA_OF_ASC_NODE":65.9667,"ARG_OF_PERICENTER":111.4743,"MEAN_ANOMALY":248.6518,"EPHEMERIS_TYPE":0,"CLASSIFICATION_TYPE":"U","NORAD_CAT_ID":45444,"ELEMENT_SET_NO":999,"REV_AT_EPOCH":27311,"BSTAR":0.0011971,"MEAN_MOTION_DOT":4.37e-6,"MEAN_MOTION_DDOT":0},{"OBJECT_NAME":"ONEWEB-0029","OBJECT_ID":"2020-020X","EPOCH":"2025-11-03T13:26:27.418848","MEAN_MOTION":13.11415275,"ECCENTRICITY":0.0001581,"INCLINATION":87.8857,"RA_OF_ASC_NODE":65.9915,"ARG_OF_PERICENTER":104.8185,"MEAN_ANOMALY":255.3118,"EPHEMERIS_TYPE":0,"CLASSIFICATION_TYPE":"U","NORAD_CAT_ID":45445,"ELEMENT_SET_NO":999,"REV_AT_EPOCH":27308,"BSTAR":0.0015619,"MEAN_MOTION_DOT":5.66e-6,"MEAN_MOTION_DDOT":0},{"OBJECT_NAME":"ONEWEB-0068","OBJECT_ID":"2020-020Y","EPOCH":"2025-11-03T18:32:38.637888","MEAN_MOTION":13.11420509,"ECCENTRICITY":0.0001575,"INCLINATION":87.8857,"RA_OF_ASC_NODE":65.9374,"ARG_OF_PERICENTER":107.1665,"MEAN_ANOMALY":252.9635,"EPHEMERIS_TYPE":0,"CLASSIFICATION_TYPE":"U","NORAD_CAT_ID":45446,"ELEMENT_SET_NO":999,"REV_AT_EPOCH":27305,"BSTAR":0.00085656,"MEAN_MOTION_DOT":3.16e-6,"MEAN_MOTION_DDOT":0},{"OBJECT_NAME":"ONEWEB-0046","OBJECT_ID":"2020-020Z","EPOCH":"2025-11-03T18:20:37.559040","MEAN_MOTION":13.1141848,"ECCENTRICITY":0.0001373,"INCLINATION":87.8856,"RA_OF_ASC_NODE":65.9475,"ARG_OF_PERICENTER":100.9598,"MEAN_ANOMALY":259.1684,"EPHEMERIS_TYPE":0,"CLASSIFICATION_TYPE":"U","NORAD_CAT_ID":45447,"ELEMENT_SET_NO":999,"REV_AT_EPOCH":27306,"BSTAR":-0.00062046,"MEAN_MOTION_DOT":-2.07e-6,"MEAN_MOTION_DDOT":0},{"OBJECT_NAME":"ONEWEB-0063","OBJECT_ID":"2020-020AA","EPOCH":"2025-11-03T13:32:33.894816","MEAN_MOTION":13.11416331,"ECCENTRICITY":0.0001484,"INCLINATION":87.8856,"RA_OF_ASC_NODE":65.9856,"ARG_OF_PERICENTER":94.3477,"MEAN_ANOMALY":265.782,"EPHEMERIS_TYPE":0,"CLASSIFICATION_TYPE":"U","NORAD_CAT_ID":45448,"ELEMENT_SET_NO":999,"REV_AT_EPOCH":27312,"BSTAR":0.0010859,"MEAN_MOTION_DOT":3.98e-6,"MEAN_MOTION_DDOT":0},{"OBJECT_NAME":"ONEWEB-0019","OBJECT_ID":"2020-020AB","EPOCH":"2025-11-03T18:24:19.112832","MEAN_MOTION":13.1141951,"ECCENTRICITY":0.0001692,"INCLINATION":87.8851,"RA_OF_ASC_NODE":65.959,"ARG_OF_PERICENTER":102.3612,"MEAN_ANOMALY":257.7705,"EPHEMERIS_TYPE":0,"CLASSIFICATION_TYPE":"U","NORAD_CAT_ID":45449,"ELEMENT_SET_NO":999,"REV_AT_EPOCH":27299,"BSTAR":0.00019593,"MEAN_MOTION_DOT":8.2e-7,"MEAN_MOTION_DDOT":0},{"OBJECT_NAME":"ONEWEB-0094","OBJECT_ID":"2020-020AC","EPOCH":"2025-11-02T07:20:09.379104","MEAN_MOTION":13.17650094,"ECCENTRICITY":0.00017609,"INCLINATION":87.9138,"RA_OF_ASC_NODE":50.9482,"ARG_OF_PERICENTER":102.2401,"MEAN_ANOMALY":257.8928,"EPHEMERIS_TYPE":0,"CLASSIFICATION_TYPE":"U","NORAD_CAT_ID":45450,"ELEMENT_SET_NO":999,"REV_AT_EPOCH":27643,"BSTAR":0.00036944717,"MEAN_MOTION_DOT":1.56e-6,"MEAN_MOTION_DDOT":0},{"OBJECT_NAME":"ONEWEB-0087","OBJECT_ID":"2020-020AD","EPOCH":"2025-11-02T10:18:58.787712","MEAN_MOTION":13.1141684,"ECCENTRICITY":0.0001638,"INCLINATION":87.8865,"RA_OF_ASC_NODE":66.1657,"ARG_OF_PERICENTER":112.1457,"MEAN_ANOMALY":247.9845,"EPHEMERIS_TYPE":0,"CLASSIFICATION_TYPE":"U","NORAD_CAT_ID":45451,"ELEMENT_SET_NO":999,"REV_AT_EPOCH":27286,"BSTAR":-0.00093463,"MEAN_MOTION_DOT":-3.19e-6,"MEAN_MOTION_DDOT":0},{"OBJECT_NAME":"ONEWEB-0082","OBJECT_ID":"2020-020AE","EPOCH":"2025-11-03T17:22:02.742240","MEAN_MOTION":13.1141663,"ECCENTRICITY":0.0001597,"INCLINATION":87.8863,"RA_OF_ASC_NODE":65.9335,"ARG_OF_PERICENTER":109.58,"MEAN_ANOMALY":250.5501,"EPHEMERIS_TYPE":0,"CLASSIFICATION_TYPE":"U","NORAD_CAT_ID":45452,"ELEMENT_SET_NO":999,"REV_AT_EPOCH":27312,"BSTAR":0.0001862,"MEAN_MOTION_DOT":7.9e-7,"MEAN_MOTION_DDOT":0},{"OBJECT_NAME":"ONEWEB-0050","OBJECT_ID":"2020-020AF","EPOCH":"2025-11-03T14:29:29.857056","MEAN_MOTION":14.8919882,"ECCENTRICITY":0.0005838,"INCLINATION":88.919,"RA_OF_ASC_NODE":263.9893,"ARG_OF_PERICENTER":75.8903,"MEAN_ANOMALY":284.2974,"EPHEMERIS_TYPE":0,"CLASSIFICATION_TYPE":"U","NORAD_CAT_ID":45453,"ELEMENT_SET_NO":999,"REV_AT_EPOCH":30679,"BSTAR":0.00034374,"MEAN_MOTION_DOT":3.269e-5,"MEAN_MOTION_DDOT":0},{"OBJECT_NAME":"ONEWEB-0034","OBJECT_ID":"2020-020AG","EPOCH":"2025-11-03T14:12:49.085856","MEAN_MOTION":13.11416774,"ECCENTRICITY":0.0001622,"INCLINATION":87.8859,"RA_OF_ASC_NODE":65.9778,"ARG_OF_PERICENTER":101.2762,"MEAN_ANOMALY":258.8549,"EPHEMERIS_TYPE":0,"CLASSIFICATION_TYPE":"U","NORAD_CAT_ID":45454,"ELEMENT_SET_NO":999,"REV_AT_EPOCH":27302,"BSTAR":-0.0020351,"MEAN_MOTION_DOT":-7.09e-6,"MEAN_MOTION_DDOT":0},{"OBJECT_NAME":"ONEWEB-0060","OBJECT_ID":"2020-020AH","EPOCH":"2025-11-02T08:13:27.901920","MEAN_MOTION":13.11414506,"ECCENTRICITY":0.0001918,"INCLINATION":87.8844,"RA_OF_ASC_NODE":66.2483,"ARG_OF_PERICENTER":136.3213,"MEAN_ANOMALY":223.8067,"EPHEMERIS_TYPE":0,"CLASSIFICATION_TYPE":"U","NORAD_CAT_ID":45455,"ELEMENT_SET_NO":999,"REV_AT_EPOCH":27281,"BSTAR":0.00099831,"MEAN_MOTION_DOT":3.67e-6,"MEAN_MOTION_DDOT":0},{"OBJECT_NAME":"ONEWEB-0086","OBJECT_ID":"2020-020AJ","EPOCH":"2025-11-03T14:50:40.896960","MEAN_MOTION":13.11420608,"ECCENTRICITY":0.0002221,"INCLINATION":87.8857,"RA_OF_ASC_NODE":65.9689,"ARG_OF_PERICENTER":115.5475,"MEAN_ANOMALY":244.5883,"EPHEMERIS_TYPE":0,"CLASSIFICATION_TYPE":"U","NORAD_CAT_ID":45456,"ELEMENT_SET_NO":999,"REV_AT_EPOCH":27304,"BSTAR":0.0011128,"MEAN_MOTION_DOT":4.07e-6,"MEAN_MOTION_DDOT":0},{"OBJECT_NAME":"ONEWEB-0088","OBJECT_ID":"2020-020AK","EPOCH":"2025-11-03T17:58:40.676160","MEAN_MOTION":13.11419794,"ECCENTRICITY":0.0001458,"INCLINATION":87.8867,"RA_OF_ASC_NODE":65.8941,"ARG_OF_PERICENTER":101.3217,"MEAN_ANOMALY":258.8075,"EPHEMERIS_TYPE":0,"CLASSIFICATION_TYPE":"U","NORAD_CAT_ID":45457,"ELEMENT_SET_NO":999,"REV_AT_EPOCH":27299,"BSTAR":-0.0013584,"MEAN_MOTION_DOT":-4.69e-6,"MEAN_MOTION_DDOT":0}]
